[{"OBJECT_NAME":"CUBESX-HSE 3 (RS42S)","OBJECT_ID":"2023-091N","EPOCH":"2026-03-09T22:57:25.321248","MEAN_MOTION":15.286147,"ECCENTRICITY":0.00127191,"INCLINATION":97.5203,"RA_OF_ASC_NODE":133.4295,"ARG_OF_PERICENTER":86.5376,"MEAN_ANOMALY":273.7318,"EPHEMERIS_TYPE":0,"CLASSIFICATION_TYPE":"U","NORAD_CAT_ID":57178,"ELEMENT_SET_NO":999,"REV_AT_EPOCH":14925,"BSTAR":0.00059055694,"MEAN_MOTION_DOT":0.00016417,"MEAN_MOTION_DDOT":0},{"OBJECT_NAME":"STARLINK-36186","OBJECT_ID":"2025-303C","EPOCH":"2026-03-09T01:36:24.057504","MEAN_MOTION":15.27582949,"ECCENTRICITY":0.00017453,"INCLINATION":43.0028,"RA_OF_ASC_NODE":313.9149,"ARG_OF_PERICENTER":273.9123,"MEAN_ANOMALY":86.1529,"EPHEMERIS_TYPE":0,"CLASSIFICATION_TYPE":"U","NORAD_CAT_ID":67165,"ELEMENT_SET_NO":999,"REV_AT_EPOCH":1264,"BSTAR":0.0014413292,"MEAN_MOTION_DOT":0.00039617,"MEAN_MOTION_DDOT":0}]
